[{"OBJECT_NAME":"GENMAT-1","OBJECT_ID":"2023-174W","EPOCH":"2026-03-09T18:03:23.351040","MEAN_MOTION":15.32594666,"ECCENTRICITY":0.00074416,"INCLINATION":97.3728,"RA_OF_ASC_NODE":146.8236,"ARG_OF_PERICENTER":169.2515,"MEAN_ANOMALY":190.8888,"EPHEMERIS_TYPE":0,"CLASSIFICATION_TYPE":"U","NORAD_CAT_ID":58276,"ELEMENT_SET_NO":999,"REV_AT_EPOCH":12973,"BSTAR":0.00042157222,"MEAN_MOTION_DOT":0.0001321,"MEAN_MOTION_DDOT":0},{"OBJECT_NAME":"STARLINK-32205","OBJECT_ID":"2024-131M","EPOCH":"2026-03-09T22:28:52.928544","MEAN_MOTION":15.30185056,"ECCENTRICITY":0.0001352,"INCLINATION":53.1612,"RA_OF_ASC_NODE":51.4919,"ARG_OF_PERICENTER":92.8209,"MEAN_ANOMALY":267.2946,"EPHEMERIS_TYPE":0,"CLASSIFICATION_TYPE":"U","NORAD_CAT_ID":60266,"ELEMENT_SET_NO":999,"REV_AT_EPOCH":9175,"BSTAR":8.460043e-6,"MEAN_MOTION_DOT":-1.09e-6,"MEAN_MOTION_DDOT":0}]
